[{"OBJECT_NAME":"BRO-1","OBJECT_ID":"2019-054A","EPOCH":"2026-03-09T16:28:44.999616","MEAN_MOTION":15.66250354,"ECCENTRICITY":0.0008796,"INCLINATION":44.9993,"RA_OF_ASC_NODE":153.3787,"ARG_OF_PERICENTER":331.8221,"MEAN_ANOMALY":28.22,"EPHEMERIS_TYPE":0,"CLASSIFICATION_TYPE":"U","NORAD_CAT_ID":44495,"ELEMENT_SET_NO":999,"REV_AT_EPOCH":36404,"BSTAR":0.00076001799,"MEAN_MOTION_DOT":0.00081046,"MEAN_MOTION_DDOT":0},{"OBJECT_NAME":"STARLINK-11253 [DTC]","OBJECT_ID":"2024-155M","EPOCH":"2026-03-09T23:29:14.488224","MEAN_MOTION":15.69689702,"ECCENTRICITY":5.41e-5,"INCLINATION":53.1594,"RA_OF_ASC_NODE":340.1242,"ARG_OF_PERICENTER":84.8596,"MEAN_ANOMALY":275.2484,"EPHEMERIS_TYPE":0,"CLASSIFICATION_TYPE":"U","NORAD_CAT_ID":60935,"ELEMENT_SET_NO":999,"REV_AT_EPOCH":8844,"BSTAR":3.165671e-5,"MEAN_MOTION_DOT":3.246e-5,"MEAN_MOTION_DDOT":0}]
